SARSAT 7 (NOAA 15)      
1 25338U 98030A   17252.56575551  .00000077  00000-0  51124-4 0  9998
2 25338  98.7818 263.6432 0009894 327.2726  32.7839 14.25815330  4771
GPS BIIR-07             
1 26690U 01004A   17252.59902872  .00000013  00000-0  00000-0 0  9991
2 26690  53.0507 154.3034 0183524 258.0035 271.5498  2.00568227121711
METEOSAT-8 (MSG-1)      
1 27509U 02040B   17252.61183642  .00000129  00000-0  00000-0 0  9999
2 27509   4.9811  58.0142 0001042 269.4389 283.0477  1.00266596 55147
GPS BIIR-08             
1 27663U 03005A   17252.27921209 -.00000054  00000-0  00000+0 0  9990
2 27663  56.6719 341.6157 0091703  25.1671   8.5421  2.00554202107063
GPS BIIR-11             
1 28190U 04009A   17252.49847993 -.00000032  00000-0  00000+0 0  9998
2 28190  56.0500  42.5833 0098864  60.2926 286.8995  2.00563290 98745
GPS BIIR-12             
1 28361U 04023A   17252.44995628  .00000040  00000-0  00000+0 0  9996
2 28361  54.0969 216.5216 0120449 221.9403 359.8924  2.00561678 96829
GPS BIIR-13             
1 28474U 04045A   17252.43116715  .00000009  00000-0  00000+0 0  9991
2 28474  54.2855  94.2280 0172343 248.0634 322.4777  2.00574408 94182
SARSAT 10 (NOAA 18)     
1 28654U 05018A   17252.57061825  .00000065  00000-0  60743-4 0  9995
2 28654  99.1787 276.8306 0014161 191.1973 168.8884 14.12348307634070
GPS BIIR-14M            
1 28874U 05038A   17252.53055201 -.00000034  00000-0  00000-0 0  9991
2 28874  56.2030  39.8559 0120480 254.4976 137.8303  2.00562866 87609
MSG-2                   
1 28912U 05049B   17252.22684957  .00000050  00000-0  00000-0 0  9995
2 28912   2.3610  71.3051 0000588  73.2000 295.0547  1.00277419 42960
GOES 13                 
1 29155U 06018A   17252.24151017 -.00000263  00000-0  00000-0 0  9997
2 29155   0.0220 142.8895 0003527 327.0699 250.0913  1.00283194 41405
SARSAT 11 (METOP-A)     
1 29499U 06044A   17252.63520573  .00000048  00000-0  41612-4 0  9995
2 29499  98.6701 310.8055 0000429  39.3105 111.6040 14.21507308564957
GPS BIIR-16M            
1 29601U 06052A   17251.54335032 -.00000052  00000-0  00000+0 0  9999
2 29601  56.6456 340.5630 0063576  51.1773 309.4406  2.00558287 79205
GPS BIIR-17M            
1 32260U 07047A   17252.35980578  .00000036  00000-0  00000+0 0  9991
2 32260  53.2225 212.7989 0094367  33.2508 327.3115  2.00570610 72600
GPS BIIR-18M            
1 32384U 07062A   17252.25973286 -.00000034  00000-0  00000+0 0  9991
2 32384  56.2693  40.4540 0003803  27.9346  38.6939  2.00575876 71337
SARSAT 12 (NOAA 19)     
1 33591U 09005A   17252.58138345  .00000138  00000-0  10009-3 0  9994
2 33591  99.1017 220.6431 0014723  38.3035 321.9179 14.12209661442304
GOES 14                 
1 35491U 09033A   17252.32198203 -.00000106  00000-0  00000-0 0  9990
2 35491   0.3737 274.1942 0009752 301.1557 144.5980  1.00273677 30049
GOES 15                 
1 36411U 10008A   17252.40684565  .00000075  00000-0  00000-0 0  9991
2 36411   0.3471 276.0917 0005142 259.1737 184.7517  1.00263524 27577
ELEKTRO-L 1             
1 37344U 11001A   17252.45382856 -.00000258  00000-0  00000+0 0  9997
2 37344   2.6043  77.6225 0002944 272.2279  88.2816  1.00169750 24353
GLONASS-K 1             
1 37372U 11009A   17252.23557083  .00000014  00000-0  00000-0 0  9998
2 37372  65.4431  61.7930 0007038 222.0149  94.3131  2.13107721 50832
GPS BIIF-2              
1 37753U 11036A   17252.60076840  .00000012  00000-0  00000-0 0  9997
2 37753  55.4901  97.4076 0068980  33.8195  64.4726  2.00562808 45047
GSAT0101 (GALILEO-PFM)  
1 37846U 11060A   17250.33498148  .00000003  00000-0  00000-0 0  9994
2 37846  55.8900  69.4122 0002395  15.4123 344.6462  1.70473590 36482
GSAT0102 (GALILEO-FM2)  
1 37847U 11060B   17249.81002003  .00000004  00000-0  00000+0 0  9997
2 37847  55.8905  69.4260 0002498 329.6470 112.3148  1.70475918 36601
LUCH 5A                 
1 37951U 11074B   17252.49835253 -.00000059  00000-0  00000+0 0  9998
2 37951   1.5925 173.3101 0001989   3.1075 158.6711  1.00272767 21079
MSG-3                   
1 38552U 12035B   17252.03039125 -.00000011  00000-0  00000-0 0  9997
2 38552   0.8377   2.4859 0002224 161.2193 196.3155  1.00281780 18771
SARSAT 13 (METOP-B)     
1 38771U 12049A   17252.60079958  .00000046  00000-0  40981-4 0  9999
2 38771  98.6707 311.3291 0001310  49.8740  91.0948 14.21509004258273
GPS BIIF-3              
1 38833U 12053A   17252.45419024  .00000023  00000-0  00000+0 0  9996
2 38833  54.1048 275.0965 0057799  24.7469 335.5735  2.00562842 36102
GSAT0103 (GALILEO-FM3)  
1 38857U 12055A   17252.13752513  .00000013  00000-0  00000-0 0  9992
2 38857  54.9073 189.7095 0004022 251.8252 108.1189  1.70473715 30560
GSAT0104 (GALILEO-FM4)  
1 38858U 12055B   17251.48521575  .00000012  00000-0  00000-0 0  9991
2 38858  54.9080 189.7265 0002999 256.1179 103.8325  1.70473796 30546
GPS BIIF-4              
1 39166U 13023A   17252.30699936 -.00000039  00000-0  00000+0 0  9998
2 39166  55.9081  36.8525 0048403  20.2830 339.9151  2.00564227 31630
INSAT-3D                
1 39216U 13038B   17251.80522532 -.00000169  00000-0  00000-0 0  9996
2 39216   0.0200 161.3444 0000899  50.6589 147.9912  1.00268377 14997
GPS BIIF-5              
1 39533U 14008A   17252.31044118  .00000017  00000-0  00000+0 0  9992
2 39533  54.2568 280.4114 0030822 188.6139 171.3848  2.00568151 25991
LUCH 5V                 
1 39727U 14023A   17252.60525964 -.00000284  00000-0  00000-0 0  9997
2 39727   2.5460 298.8367 0001422 240.3625 122.2132  1.00268502530411
GPS BIIF-6              
1 39741U 14026A   17252.09127349  .00000015  00000-0  00000+0 0  9994
2 39741  55.4760  96.9488 0007800 289.5585  70.4413  2.00555499 24277
GPS BIIF-7              
1 40105U 14045A   17252.17825640  .00000040  00000-0  00000+0 0  9997
2 40105  54.6211 216.4844 0005716 115.9720 244.0607  2.00550822 22724
GSAT0201 (GALILEO 5)    
1 40128U 14050A   17252.14606270 -.00000050  00000-0  00000-0 0  9994
2 40128  50.3533  41.8477 1631043  66.4533 309.8194  1.85519063 18924
GSAT0202 (GALILEO 6)    
1 40129U 14050B   17251.87440588 -.00000051  00000-0  00000-0 0  9993
2 40129  50.4055  40.8584 1631675  67.4307 308.9957  1.85519716 21054
GPS BIIF-8              
1 40294U 14068A   17252.05567385  .00000018  00000-0  00000+0 0  9992
2 40294  55.0114 157.1640 0008938   9.2816 350.7922  2.00564677 20945
GLONASS-K 2             
1 40315U 14075A   17252.19464583  .00000010  00000-0  00000-0 0  9998
2 40315  64.3659 302.3983 0016876 209.6817 197.3548  2.13098724 21609
GPS BIIF-9              
1 40534U 15013A   17252.19399763 -.00000053  00000-0  00000+0 0  9998
2 40534  54.9000 336.3073 0018871 353.1119   6.9203  2.00553218 18015
GSAT0203 (GALILEO 7)    
1 40544U 15017A   17251.87565232 -.00000001  00000-0  00000-0 0  9997
2 40544  55.6807  69.6474 0002022 196.5223 163.5153  1.70475108 14596
GSAT0204 (GALILEO 8)    
1 40545U 15017B   17248.72573883  .00000004  00000-0  00000-0 0  9991
2 40545  55.6845  69.7470 0002724 136.7346 223.3469  1.70475377 15209
GPS BIIF-10             
1 40730U 15033A   17252.34813759 -.00000040  00000-0  00000+0 0  9997
2 40730  55.4417  36.4840 0027298 320.1981  39.6094  2.00562314 15773
GSAT0205 (GALILEO 9)    
1 40889U 15045A   17251.31237076 -.00000013  00000-0  00000+0 0  9993
2 40889  56.9524 309.8675 0001438 304.1398  55.9333  1.70475053 12399
GSAT0206 (GALILEO 10)   
1 40890U 15045B   17251.53226835 -.00000013  00000-0  00000-0 0  9991
2 40890  56.9515 309.8583 0001799 245.0880 114.9792  1.70475018 12428
GPS BIIF-11             
1 41019U 15062A   17252.40261822  .00000017  00000-0  00000-0 0  9999
2 41019  55.0197 156.9418 0028154 201.6721 158.2667  2.00563668 13596
GSAT0209 (GALILEO 12)   
1 41174U 15079A   17252.29069566  .00000013  00000-0  00000-0 0  9993
2 41174  54.9202 189.3938 0005521 291.9937  67.9370  1.70473208 10347
GSAT0208 (GALILEO 11)   
1 41175U 15079B   17251.92402814  .00000013  00000-0  00000+0 0  9999
2 41175  54.9186 189.4047 0004588 290.8535  69.0844  1.70473088 10755
GPS BIIF-12             
1 41328U 16007A   17251.99527502  .00000039  00000-0  00000+0 0  9998
2 41328  54.8767 216.7044 0015669 221.0000 138.8554  2.00553263 11645
GSAT0211 (GALILEO 14)   
1 41549U 16030A   17251.45792231 -.00000012  00000-0  00000-0 0  9996
2 41549  57.0922 309.6146 0003951 256.3044 103.7381  1.70474829  8059
GSAT0210 (GALILEO 13)   
1 41550U 16030B   17249.99140462 -.00000010  00000-0  00000+0 0  9994
2 41550  57.0925 309.6563 0004573 233.6366 126.4109  1.70474869  8013
GSAT0207 (GALILEO 15)   
1 41859U 16069A   17249.65137523  .00000005  00000-0  00000-0 0  9999
2 41859  54.5798 190.0852 0005408 280.3396  79.5709  1.70473076  4916
GSAT0212 (GALILEO 16)   
1 41860U 16069B   17252.43770729  .00000014  00000-0  00000+0 0  9991
2 41860  54.5771 190.0080 0004249 295.6761  64.2691  1.70472991  5051
GSAT0213 (GALILEO 17)   
1 41861U 16069C   17251.63106212  .00000012  00000-0  00000-0 0  9992
2 41861  54.5796 190.0326 0004289 260.3817  99.5539  1.70473173  5041
GSAT0214 (GALILEO 18)   
1 41862U 16069D   17251.19112430  .00000010  00000-0  00000-0 0  9991
2 41862  54.5779 190.0417 0003588 264.0923  95.8479  1.70473017  5021
